0 SL-3 R/B
1 12646U 81075B   13281.13419147  .00000050  00000-0  18997-4 0  3611
2 12646 081.2265 159.1825 0066964 239.6012 274.4976 14.15642930661074
0 SL-3 R/B
1 12646U 81075B   13282.26230542  .00000093  00000-0  40382-4 0  3627
2 12646 081.2264 158.0721 0066996 236.3278 263.7754 14.15643042661237
0 SL-3 R/B
1 12646U 81075B   13283.79884572  .00000129  00000-0  58158-4 0  3635
2 12646 081.2262 156.5596 0067033 231.8544 174.5575 14.15642839661454
0 SL-3 R/B
1 12646U 81075B   13286.22039994  .00000125  00000-0  56527-4 0  3652
2 12646 081.2256 154.1760 0067138 224.8728 275.6292 14.15643323661791
0 SL-3 R/B
1 12646U 81075B   13287.76110278  .00000088  00000-0  37685-4 0  3660
2 12646 081.2253 152.6594 0067205 220.4452 207.5657 14.15644037662015
0 SL-3 R/B
1 12646U 81075B   13288.97135564  .00000070  00000-0  28704-4 0  3673
2 12646 081.2250 151.4681 0067275 216.9932 255.3957 14.15644552662180
0 SL-3 R/B
1 12646U 81075B   13290.10158153  .00000058  00000-0  22702-4 0  3689
2 12646 081.2248 150.3555 0067334 213.7675 255.3871 14.15644898662346
0 SL-3 R/B
1 12646U 81075B   13291.16784645  .00000052  00000-0  19695-4 0  3699
2 12646 081.2247 149.3059 0067387 210.7162 289.4230 14.15645042662493
0 SL-3 R/B
1 12646U 81075B   13292.22785918  .00000052  00000-0  19546-4 0  3708
2 12646 081.2246 148.2624 0067446 207.6884 291.5910 14.15644999662646
0 SL-3 R/B
1 12646U 81075B   13293.76481091  .00000066  00000-0  26671-4 0  3716
2 12646 081.2246 146.7493 0067550 203.2978 204.3959 14.15644980662864
0 SL-3 R/B
1 12646U 81075B   13295.12777615  .00000105  00000-0  46163-4 0  3721
2 12646 081.2245 145.4075 0067625 199.3742 310.5394 14.15645036663050
